[Satellite]
VERSION=1.1
NAME=GLOBALSTAR M002
NICKNAME=GLOBALSTAR M002
TLE1=1 25164U 98008C   17186.08972890 -.00000087  00000-0 -21262-3 0  9992
TLE2=2 25164  52.0031 321.3884 0000930 198.8605 161.2181 11.61461947846603
